<?xml version="1.0" encoding="UTF-8"?>
<kml xmlns="http://www.opengis.net/kml/2.2">
<Document>
<Placemark>
<LineString><coordinates>
25.479166666666664,36.399166666666666,0 2.0783333333333336,41.29694444444444,0
</coordinates></LineString>
</Placemark>
<Placemark>
<LineString><coordinates>
-73.77833333333334,40.640277777777776,0 2.0783333333333336,41.29694444444444,0
</coordinates></LineString>
</Placemark>
<Placemark>
<LineString><coordinates>
-22.605555555555558,63.985,0 2.0783333333333336,41.29694444444444,0
</coordinates></LineString>
</Placemark>
<Placemark>
<LineString><coordinates>
39.169999999999995,45.03472222222222,0 2.0783333333333336,41.29694444444444,0
</coordinates></LineString>
</Placemark>
<Placemark>
<LineString><coordinates>
37.41305555555555,55.972500000000004,0 2.0783333333333336,41.29694444444444,0
</coordinates></LineString>
</Placemark>
<Placemark>
<LineString><coordinates>
24.96333333333333,60.31722222222223,0 2.0783333333333336,41.29694444444444,0
</coordinates></LineString>
</Placemark>
<Placemark>
<LineString><coordinates>
-84.43333333333334,33.63333333333333,0 2.0783333333333336,41.29694444444444,0
</coordinates></LineString>
</Placemark>
<Placemark>
<LineString><coordinates>
30.2625,59.80027777777777,0 2.0783333333333336,41.29694444444444,0
</coordinates></LineString>
</Placemark>
<Placemark>
<LineString><coordinates>
25.34722222222222,37.43722222222222,0 2.0783333333333336,41.29694444444444,0
</coordinates></LineString>
</Placemark>
<Placemark>
<LineString><coordinates>
37.906388888888884,55.40861111111111,0 2.0783333333333336,41.29694444444444,0
</coordinates></LineString>
</Placemark>
<Placemark>
<LineString><coordinates>
35.49,33.81916666666667,0 2.0783333333333336,41.29694444444444,0
</coordinates></LineString>
</Placemark>
<Placemark>
<LineString><coordinates>
-74.16833333333334,40.696666666666665,0 2.0783333333333336,41.29694444444444,0
</coordinates></LineString>
</Placemark>
<Placemark>
<LineString><coordinates>
-46.47,-23.433333333333334,0 2.0783333333333336,41.29694444444444,0
</coordinates></LineString>
</Placemark>
<Placemark>
<LineString><coordinates>
28.81416666666667,40.976111111111116,0 2.0783333333333336,41.29694444444444,0
</coordinates></LineString>
</Placemark>
<Placemark>
<LineString><coordinates>
-73.74138888888889,45.46805555555556,0 2.0783333333333336,41.29694444444444,0
</coordinates></LineString>
</Placemark>
<Placemark>
<LineString><coordinates>
49.280277777777776,55.606944444444444,0 2.0783333333333336,41.29694444444444,0
</coordinates></LineString>
</Placemark>
<Placemark>
<LineString><coordinates>
34.885555555555555,32.00944444444445,0 2.0783333333333336,41.29694444444444,0
</coordinates></LineString>
</Placemark>
<Placemark>
<LineString><coordinates>
-80.28333333333333,25.8,0 2.0783333333333336,41.29694444444444,0
</coordinates></LineString>
</Placemark>
<Placemark>
<LineString><coordinates>
-15.386666666666667,27.931944444444447,0 2.0783333333333336,41.29694444444444,0
</coordinates></LineString>
</Placemark>
<Placemark>
<LineString><coordinates>
11.08388888888889,60.20277777777778,0 2.0783333333333336,41.29694444444444,0
</coordinates></LineString>
</Placemark>
<Placemark>
<LineString><coordinates>
-75.245,39.87,0 2.0783333333333336,41.29694444444444,0
</coordinates></LineString>
</Placemark>
<Placemark>
<LineString><coordinates>
37.41305555555555,55.972500000000004,0 2.0783333333333336,41.29694444444444,0
</coordinates></LineString>
</Placemark>
<Placemark>
<LineString><coordinates>
-16.341666666666665,28.482777777777777,0 2.0783333333333336,41.29694444444444,0
</coordinates></LineString>
</Placemark>
<Placemark>
<LineString><coordinates>
30.2625,59.80027777777777,0 2.0783333333333336,41.29694444444444,0
</coordinates></LineString>
</Placemark>
<Placemark>
<LineString><coordinates>
11.08388888888889,60.20277777777778,0 2.0783333333333336,41.29694444444444,0
</coordinates></LineString>
</Placemark>
<Placemark>
<LineString><coordinates>
34.885555555555555,32.00944444444445,0 2.0783333333333336,41.29694444444444,0
</coordinates></LineString>
</Placemark>
<Placemark>
<LineString><coordinates>
-79.63055555555555,43.67722222222222,0 2.0783333333333336,41.29694444444444,0
</coordinates></LineString>
</Placemark>
<Placemark>
<LineString><coordinates>
34.885555555555555,32.00944444444445,0 2.0783333333333336,41.29694444444444,0
</coordinates></LineString>
</Placemark>
<Placemark>
<LineString><coordinates>
-73.77833333333334,40.640277777777776,0 2.0783333333333336,41.29694444444444,0
</coordinates></LineString>
</Placemark>
<Placemark>
<LineString><coordinates>
-80.95,35.21666666666667,0 2.0783333333333336,41.29694444444444,0
</coordinates></LineString>
</Placemark>
<Placemark>
<LineString><coordinates>
-73.74138888888889,45.46805555555556,0 2.0783333333333336,41.29694444444444,0
</coordinates></LineString>
</Placemark>
<Placemark>
<LineString><coordinates>
-79.63055555555555,43.67722222222222,0 2.0783333333333336,41.29694444444444,0
</coordinates></LineString>
</Placemark>
<Placemark>
<LineString><coordinates>
-77.45666666666666,38.94499999999999,0 2.0783333333333336,41.29694444444444,0
</coordinates></LineString>
</Placemark>
<Placemark>
<LineString><coordinates>
30.893333333333334,50.344722222222224,0 2.0783333333333336,41.29694444444444,0
</coordinates></LineString>
</Placemark>
<Placemark>
<LineString><coordinates>
34.885555555555555,32.00944444444445,0 2.0783333333333336,41.29694444444444,0
</coordinates></LineString>
</Placemark>
<Placemark>
<LineString><coordinates>
29.309166666666666,40.89833333333333,0 2.0783333333333336,41.29694444444444,0
</coordinates></LineString>
</Placemark>
<Placemark>
<LineString><coordinates>
30.893333333333334,50.344722222222224,0 2.0783333333333336,41.29694444444444,0
</coordinates></LineString>
</Placemark>
<Placemark>
<LineString><coordinates>
51.608333333333334,25.274444444444445,0 2.0783333333333336,41.29694444444444,0
</coordinates></LineString>
</Placemark>
<Placemark>
<LineString><coordinates>
55.36,25.249166666666667,0 2.0783333333333336,41.29694444444444,0
</coordinates></LineString>
</Placemark>
<Placemark>
<LineString><coordinates>
28.81416666666667,40.976111111111116,0 2.0783333333333336,41.29694444444444,0
</coordinates></LineString>
</Placemark>
<Placemark>
<LineString><coordinates>
25.28777777777778,54.636944444444445,0 2.0783333333333336,41.29694444444444,0
</coordinates></LineString>
</Placemark>
<Placemark>
<LineString><coordinates>
29.309166666666666,40.89833333333333,0 2.0783333333333336,41.29694444444444,0
</coordinates></LineString>
</Placemark>
<Placemark>
<LineString><coordinates>
31.413888888888888,30.11138888888889,0 2.0783333333333336,41.29694444444444,0
</coordinates></LineString>
</Placemark>
<Placemark>
<LineString><coordinates>
-74.15,4.7,0 2.0783333333333336,41.29694444444444,0
</coordinates></LineString>
</Placemark>
<Placemark>
<LineString><coordinates>
5.218055555555556,60.29361111111111,0 2.0783333333333336,41.29694444444444,0
</coordinates></LineString>
</Placemark>
<Placemark>
<LineString><coordinates>
17.91861111111111,59.651944444444446,0 2.0783333333333336,41.29694444444444,0
</coordinates></LineString>
</Placemark>
<Placemark>
<LineString><coordinates>
-16.341666666666665,28.482777777777777,0 2.0783333333333336,41.29694444444444,0
</coordinates></LineString>
</Placemark>
<Placemark>
<LineString><coordinates>
-58.53583333333333,-34.82222222222222,0 2.0783333333333336,41.29694444444444,0
</coordinates></LineString>
</Placemark>
<Placemark>
<LineString><coordinates>
37.41305555555555,55.972500000000004,0 2.0783333333333336,41.29694444444444,0
</coordinates></LineString>
</Placemark>
<Placemark>
<LineString><coordinates>
-46.47,-23.433333333333334,0 2.0783333333333336,41.29694444444444,0
</coordinates></LineString>
</Placemark>
<Placemark>
<LineString><coordinates>
24.96333333333333,60.31722222222223,0 2.0783333333333336,41.29694444444444,0
</coordinates></LineString>
</Placemark>
<Placemark>
<LineString><coordinates>
28.81416666666667,40.976111111111116,0 2.0783333333333336,41.29694444444444,0
</coordinates></LineString>
</Placemark>
<Placemark>
<LineString><coordinates>
29.309166666666666,40.89833333333333,0 2.0783333333333336,41.29694444444444,0
</coordinates></LineString>
</Placemark>
<Placemark>
<LineString><coordinates>
37.906388888888884,55.40861111111111,0 2.0783333333333336,41.29694444444444,0
</coordinates></LineString>
</Placemark>
<Placemark>
<LineString><coordinates>
-13.863888888888889,28.452777777777776,0 2.0783333333333336,41.29694444444444,0
</coordinates></LineString>
</Placemark>
<Placemark>
<LineString><coordinates>
11.08388888888889,60.20277777777778,0 2.0783333333333336,41.29694444444444,0
</coordinates></LineString>
</Placemark>
<Placemark>
<LineString><coordinates>
-16.341666666666665,28.482777777777777,0 2.0783333333333336,41.29694444444444,0
</coordinates></LineString>
</Placemark>
<Placemark>
<LineString><coordinates>
16.90361111111111,58.78861111111111,0 2.0783333333333336,41.29694444444444,0
</coordinates></LineString>
</Placemark>
<Placemark>
<LineString><coordinates>
23.97111111111111,56.92361111111111,0 2.0783333333333336,41.29694444444444,0
</coordinates></LineString>
</Placemark>
<Placemark>
<LineString><coordinates>
17.91861111111111,59.651944444444446,0 2.0783333333333336,41.29694444444444,0
</coordinates></LineString>
</Placemark>
<Placemark>
<LineString><coordinates>
11.08388888888889,60.20277777777778,0 2.0783333333333336,41.29694444444444,0
</coordinates></LineString>
</Placemark>
<Placemark>
<LineString><coordinates>
-15.386666666666667,27.931944444444447,0 2.0783333333333336,41.29694444444444,0
</coordinates></LineString>
</Placemark>
<Placemark>
<LineString><coordinates>
-16.341666666666665,28.482777777777777,0 2.0783333333333336,41.29694444444444,0
</coordinates></LineString>
</Placemark>
<Placemark>
<LineString><coordinates>
51.608333333333334,25.274444444444445,0 2.0783333333333336,41.29694444444444,0
</coordinates></LineString>
</Placemark>
<Placemark>
<LineString><coordinates>
24.96333333333333,60.31722222222223,0 2.0783333333333336,41.29694444444444,0
</coordinates></LineString>
</Placemark>
<Placemark>
<LineString><coordinates>
55.36,25.249166666666667,0 2.0783333333333336,41.29694444444444,0
</coordinates></LineString>
</Placemark>
<Placemark>
<LineString><coordinates>
17.91861111111111,59.651944444444446,0 2.0783333333333336,41.29694444444444,0
</coordinates></LineString>
</Placemark>
<Placemark>
<LineString><coordinates>
-15.386666666666667,27.931944444444447,0 2.0783333333333336,41.29694444444444,0
</coordinates></LineString>
</Placemark>
<Placemark>
<LineString><coordinates>
39.20333333333333,-6.875555555555556,0 2.0783333333333336,41.29694444444444,0
</coordinates></LineString>
</Placemark>
<Placemark>
<LineString><coordinates>
24.96333333333333,60.31722222222223,0 2.0783333333333336,41.29694444444444,0
</coordinates></LineString>
</Placemark>
<Placemark>
<LineString><coordinates>
11.08388888888889,60.20277777777778,0 2.0783333333333336,41.29694444444444,0
</coordinates></LineString>
</Placemark>
<Placemark>
<LineString><coordinates>
-22.605555555555558,63.985,0 2.0783333333333336,41.29694444444444,0
</coordinates></LineString>
</Placemark>
<Placemark>
<LineString><coordinates>
28.930833333333336,46.92777777777778,0 2.0783333333333336,41.29694444444444,0
</coordinates></LineString>
</Placemark>
<Placemark>
<LineString><coordinates>
28.81416666666667,40.976111111111116,0 2.0783333333333336,41.29694444444444,0
</coordinates></LineString>
</Placemark>
<Placemark>
<LineString><coordinates>
11.08388888888889,60.20277777777778,0 2.0783333333333336,41.29694444444444,0
</coordinates></LineString>
</Placemark>
<Placemark>
<LineString><coordinates>
37.41305555555555,55.972500000000004,0 2.0783333333333336,41.29694444444444,0
</coordinates></LineString>
</Placemark>
<Placemark>
<LineString><coordinates>
37.906388888888884,55.40861111111111,0 2.0783333333333336,41.29694444444444,0
</coordinates></LineString>
</Placemark>
<Placemark>
<LineString><coordinates>
-15.386666666666667,27.931944444444447,0 2.0783333333333336,41.29694444444444,0
</coordinates></LineString>
</Placemark>
<Placemark>
<LineString><coordinates>
-22.605555555555558,63.985,0 2.0783333333333336,41.29694444444444,0
</coordinates></LineString>
</Placemark>
</Document>
</kml>